STARLINK-11725 [DTC]    
1 64125U 25111C   25201.64686288  .00172302  00000+0  13166-2 0  9999
2 64125  42.9981 292.6348 0001080 292.4379  67.6374 15.70876896 10137
STARLINK-11717 [DTC]    
1 64126U 25111D   25201.58335648 -.00097675  00000+0 -76597-3 0  9993
2 64126  42.9987 293.0965 0001643 276.7570  53.7061 15.70860702  6073
STARLINK-11721 [DTC]    
1 64127U 25111E   25201.67858480  .00166295  00000+0  12719-2 0  9996
2 64127  42.9992 291.9949 0001808 272.9099  87.1562 15.70873602 10149
STARLINK-11722 [DTC]    
1 64128U 25111F   25201.25473902  .00166460  00000+0  12688-2 0  9992
2 64128  42.9957 294.8499 0001479 188.6719 171.4124 15.70954996 10034
STARLINK-11679 [DTC]    
1 64129U 25111G   25201.68389354  .00093025  00000+0  71975-3 0  9998
2 64129  42.9987 292.0422 0002073 273.3338  86.7292 15.70859535 10143
STARLINK-11735 [DTC]    
1 64130U 25111H   25201.70513501  .00258292  00000+0  19486-2 0  9993
2 64130  42.9965 292.2114 0001389 287.1391  72.9324 15.70912112  9997
STARLINK-11720 [DTC]    
1 64131U 25111J   25201.30770403  .00157778  00000+0  12081-2 0  9997
2 64131  42.9976 294.3821 0001625 261.9297  98.1386 15.70875161 10044
STARLINK-11718 [DTC]    
1 64132U 25111K   25201.60011254  .00128413  00000+0  98734-3 0  9997
2 64132  42.9978 293.1558 0002084 274.9617  85.1012 15.70875699 10184
STARLINK-11716 [DTC]    
1 64133U 25111L   25201.53031011  .00155362  00000+0  11904-2 0  9999
2 64133  42.9966 293.4881 0001533 275.9536  84.1156 15.70867276 10172
STARLINK-11714 [DTC]    
1 64134U 25111M   25201.60969295  .00120357  00000+0  92731-3 0  9996
2 64134  42.9989 292.3343 0001676 268.3080  91.7596 15.70856056 10139
STARLINK-11712 [DTC]    
1 64135U 25111N   25201.28659669  .00156358  00000+0  11980-2 0  9998
2 64135  42.9968 295.1068 0001823 266.3925  93.6734 15.70864273 10081
STARLINK-34254          
1 64136U 25111P   25201.34972414  .00017503  00000+0  64403-3 0  9999
2 64136  43.0001 309.6955 0000973 271.5151  88.5589 15.27581418  9934
STARLINK-34230          
1 64137U 25111Q   25201.57800854  .00021019  00000+0  77090-3 0  9996
2 64137  42.9983 308.8243 0000836 261.9886  98.0871 15.27591595  9969
STARLINK-34129          
1 64138U 25111R   25201.58571655  .00022707  00000+0  83213-3 0  9991
2 64138  42.9985 308.8855 0001406 271.7023  88.3668 15.27579801 10017
STARLINK-34212          
1 64139U 25111S   25201.36000339  .00007671  00000+0  28798-3 0  9994
2 64139  42.9997 309.7707 0001255 269.0871  90.9836 15.27580568  9937
STARLINK-34149          
1 64140U 25111T   25201.56644154  .00022796  00000+0  83453-3 0  9991
2 64140  43.0021 308.7399 0000346 282.2593  77.8220 15.27611904  9966
STARLINK-34054          
1 64141U 25111U   25201.56387204  .00023552  00000+0  86222-3 0  9990
2 64141  43.0018 308.7208 0001405 269.0295  91.0396 15.27596775  9961
STARLINK-34195          
1 64142U 25111V   25201.35614643  .00019957  00000+0  73286-3 0  9998
2 64142  42.9980 309.7375 0001059 239.8315 120.2431 15.27576800  9936
STARLINK-34133          
1 64143U 25111W   25201.28690520  .00018264  00000+0  67136-3 0  9996
2 64143  42.9957 310.0784 0000160 312.8361  47.2477 15.27590522  9929
STARLINK-34181          
1 64144U 25111X   25201.57029715  .00018080  00000+0  66479-3 0  9996
2 64144  43.0001 308.7677 0001529 271.7045  88.3631 15.27586243  9966
STARLINK-34186          
1 64145U 25111Y   25201.57929090  .00014738  00000+0  54381-3 0  9997
2 64145  43.0063 308.8349 0001077 268.2550  91.8178 15.27593580  9969
STARLINK-34314          
1 64146U 25112A   25201.41232499  .00012817  00000+0  33024-3 0  9999
2 64146  97.6048 252.0389 0000945  86.4424 273.6929 15.39347992  8325
STARLINK-33926          
1 64147U 25112B   25201.57484190  .00027105  00000+0  69443-3 0  9994
2 64147  97.6018 252.2858 0000463 114.3250 245.8043 15.39357134  8359
STARLINK-34213          
1 64148U 25112C   25201.39607557  .00016470  00000+0  42353-3 0  9993
2 64148  97.6044 252.0620 0000542 109.8841 250.2462 15.39349294  8327
STARLINK-33924          
1 64149U 25112D   25201.61240405  .00027374  00000+0  70138-3 0  9991
2 64149  97.6030 252.3931 0001031  90.3201 269.8162 15.39352089  8362
STARLINK-34209          
1 64150U 25112E   25201.40438103  .00023394  00000+0  60025-3 0  9996
2 64150  97.6040 252.0498 0000597  82.2179 277.9133 15.39342136  8326
STARLINK-34338          
1 64151U 25112F   25201.38812934  .00031561  00000+0  80797-3 0  9995
2 64151  97.6037 252.0724 0000609 258.5604 101.5573 15.39348518  8320
STARLINK-34348          
1 64152U 25112G   25201.56689614  .00037555  00000+0  95974-3 0  9995
2 64152  97.6018 252.2961 0000975  27.3055 332.8241 15.39364798  8355
STARLINK-34345          
1 64153U 25112H   25201.87531238  .00029717  00000+0  76028-3 0  9998
2 64153  97.6009 252.6568 0000752  89.8599 270.2732 15.39380600  9555
STARLINK-33945          
1 64154U 25112J   25201.40619103  .00016402  00000+0  42168-3 0  9991
2 64154  97.6038 252.2112 0000740  79.0557 281.0771 15.39356389  8336
STARLINK-34346          
1 64155U 25112K   25201.39522395  .00011470  00000+0  29583-3 0  9992
2 64155  97.6040 252.2252 0000615  93.0349 267.0966 15.39348040  8336
STARLINK-34277          
1 64156U 25112L   25200.38800926  .00032739  00000+0  83779-3 0  9998
2 64156  97.6042 251.2590 0000580 103.1064 257.0246 15.39353379  9333
STARLINK-34343          
1 64157U 25112M   25201.41147963  .00014729  00000+0  37907-3 0  9990
2 64157  97.6032 252.3617 0000796  88.7827 271.3510 15.39349933  8343
STARLINK-34166          
1 64158U 25112N   25201.57434819  .00027548  00000+0  70589-3 0  9993
2 64158  97.6021 252.4497 0000330  94.9791 265.1491 15.39348380  8368
STARLINK-34344          
1 64159U 25112P   25201.69641777  .00025811  00000+0  66163-3 0  9994
2 64159  97.6011 252.5947 0001119  98.5927 261.5445 15.39350200  9472
STARLINK-34339          
1 64160U 25112Q   25201.54979498  .00037579  00000+0  96071-3 0  9999
2 64160  97.6029 252.4841 0000479 253.5933 106.5259 15.39353903  9512
STARLINK-34341          
1 64161U 25112R   25201.40353437  .00014415  00000+0  37106-3 0  9992
2 64161  97.6044 252.3734 0000052 277.4818  82.6421 15.39348339  8346
STARLINK-34317          
1 64162U 25112S   25201.38691908  .00026536  00000+0  68013-3 0  9996
2 64162  97.6038 252.2370 0000895  98.4046 261.7300 15.39349165  8337
STARLINK-34340          
1 64163U 25112T   25201.56207199  .00038072  00000+0  97279-3 0  9996
2 64163  97.6016 252.4649 0001223 341.0935  19.0265 15.39366473  9511
STARLINK-34263          
1 64164U 25112U   25201.09909218  .00033651  00000+0  86054-3 0  9993
2 64164  97.6027 252.0069 0001392 301.8712  58.2397 15.39368002  8295
STARLINK-33793          
1 64165U 25112V   25201.87085605  .00027892  00000+0  71423-3 0  9999
2 64165  97.6033 252.8275 0000245 247.3835 112.7384 15.39366874  9508
STARLINK-34313          
1 64166U 25112W   25201.40750892  .00007811  00000+0  20222-3 0  9996
2 64166  97.6054 252.3686 0001632  90.7893 269.3539 15.39352122  8341
STARLINK-34309          
1 64167U 25112X   25201.39956571  .00023558  00000+0  60439-3 0  9997
2 64167  97.6044 252.3801 0001000  88.2983 271.8376 15.39343775  8342
STARLINK-34303          
1 64168U 25112Y   25201.39089534  .00018623  00000+0  47843-3 0  9995
2 64168  97.6016 252.3912 0000077 142.1452 217.9799 15.39351303  8345
STARLINK-34175          
1 64169U 25112Z   25201.57037059  .00024431  00000+0  62598-3 0  9999
2 64169  97.6037 252.4584 0001352 113.2989 246.8399 15.39375416  9457
STARLINK-34177          
1 64170U 25113A   25201.88928747  .00027655  00000+0  69846-3 0  9993
2 64170  53.1596  87.9580 0001046 122.5222 237.5884 15.39636550  9574
STARLINK-34228          
1 64171U 25113B   25201.85678582  .00006772  00000+0  17921-3 0  9994
2 64171  53.1529  87.7552 0000512 186.6036 173.4962 15.39603780  9573
STARLINK-34233          
1 64172U 25113C   25201.83335648 -.02135427  00000+0 -76225-1 0  9990
2 64172  53.1614  88.1316 0000750 106.0845 348.5631 15.31847796  9566
STARLINK-34172          
1 64173U 25113D   25201.83335648 -.00012775  00000+0 -42014-3 0  9990
2 64173  53.1595  87.7820 0001102  93.5025 176.7077 15.30184219  9526
STARLINK-34202          
1 64174U 25113E   25201.87390177 -.00690421  00000+0 -24488-1 0  9996
2 64174  53.1608  87.8581 0002623 357.3217   2.7770 15.31092556  9576
STARLINK-34231          
1 64175U 25113F   25201.82440684  .00031891  00000+0  10808-2 0  9991
2 64175  53.1614  88.2590 0001690 238.5904 121.4932 15.30303272  9551
STARLINK-34191          
1 64176U 25113G   25201.83335648 -.01973589  00000+0 -66982-1 0  9991
2 64176  53.1599  87.6439 0000999  63.9216 276.1363 15.33744324  9563
STARLINK-34164          
1 64177U 25113H   25201.58335648  .00043519  00000+0  14746-2 0  9994
2 64177  53.1671  89.4612 0001590  92.9608 337.5504 15.30162326  9521
STARLINK-34227          
1 64178U 25113J   25201.87711184  .00022951  00000+0  78451-3 0  9991
2 64178  53.1611  87.8773 0001767  86.4831 273.6372 15.30205209  9574
STARLINK-34194          
1 64179U 25113K   25201.87071275  .00009478  00000+0  24656-3 0  9999
2 64179  53.1593  87.8405 0001068  79.4748 280.6377 15.39629442  9570
STARLINK-34000          
1 64180U 25113L   25201.58335648  .00065578  00000+0  22084-2 0  9991
2 64180  53.1593  89.0788 0001903  94.1823 168.2297 15.30175962  9471
STARLINK-33917          
1 64181U 25113M   25201.88872173  .00023360  00000+0  79856-3 0  9997
2 64181  53.1612  87.9464 0001744  58.3953 301.7217 15.30191448  9575
STARLINK-34131          
1 64182U 25113N   25201.87499722  .00023644  00000+0  80776-3 0  9990
2 64182  53.1629  87.8592 0000794 105.3927 254.7161 15.30205270  9487
STARLINK-34188          
1 64183U 25113P   25201.58335648  .00148594  00000+0  49478-2 0  9990
2 64183  53.1723  89.3909 0001945 111.3898 353.9615 15.30081422  9527
